[{"OBJECT_NAME":"LYNK TOWER 5","OBJECT_ID":"2024-043Z","EPOCH":"2026-03-09T22:11:51.175104","MEAN_MOTION":15.29454506,"ECCENTRICITY":0.00104056,"INCLINATION":97.5458,"RA_OF_ASC_NODE":204.7305,"ARG_OF_PERICENTER":234.6422,"MEAN_ANOMALY":125.3846,"EPHEMERIS_TYPE":0,"CLASSIFICATION_TYPE":"U","NORAD_CAT_ID":59121,"ELEMENT_SET_NO":999,"REV_AT_EPOCH":11186,"BSTAR":0.00031901545,"MEAN_MOTION_DOT":9.048e-5,"MEAN_MOTION_DDOT":0},{"OBJECT_NAME":"STARLINK-33906","OBJECT_ID":"2025-091L","EPOCH":"2026-03-09T23:14:33.787968","MEAN_MOTION":15.27602178,"ECCENTRICITY":7.244e-5,"INCLINATION":42.9973,"RA_OF_ASC_NODE":51.0536,"ARG_OF_PERICENTER":189.6189,"MEAN_ANOMALY":170.4649,"EPHEMERIS_TYPE":0,"CLASSIFICATION_TYPE":"U","NORAD_CAT_ID":63785,"ELEMENT_SET_NO":999,"REV_AT_EPOCH":4889,"BSTAR":0.0014820274,"MEAN_MOTION_DOT":0.00040773,"MEAN_MOTION_DDOT":0}]
